SL-14 R/B               
1 16792U 86046B   25355.20186254  .00000453  00000+0  49403-4 0  9992
2 16792  82.4816 154.3223 0024354 125.4062 234.9434 14.85493273114757
SL-14 R/B               
1 16882U 86055B   25354.85352069  .00000337  00000+0  36170-4 0  9999
2 16882  82.5197 200.7486 0017733 230.3631 140.0652 14.85537764107663
AJISAI (EGS)            
1 16908U 86061A   25355.25430987 -.00000098  00000+0 -32524-5 0  9992
2 16908  50.0113 334.5357 0011314  87.2683 336.3454 12.44514359458238
COSMOS 1812             
1 17295U 87003A   25355.23677561  .00093520  00000+0  56918-3 0  9999
2 17295  82.4877 282.8068 0006665  73.3700 286.8297 15.77128069131990
SL-14 R/B               
1 17567U 87024B   25355.19639524  .00000419  00000+0  45030-4 0  9995
2 17567  82.5275 166.5100 0018826 156.4601 203.7481 14.86031874 76475
COSMOS 1833             
1 17589U 87027A   25354.78796234  .00000209  00000+0  13756-3 0  9994
2 17589  70.9151 131.8583 0022868 320.4564  39.4888 14.13025386999161
SL-16 R/B               
1 17590U 87027B   25354.63740428  .00000188  00000+0  11716-3 0  9994
2 17590  71.0038  83.0769 0007260 251.2920 108.7416 14.17155332  4140
SL-14 R/B               
1 17912U 87038B   25355.15100281  .00000322  00000+0  34565-4 0  9997
2 17912  82.5011  10.7780 0020772  66.2837 294.0555 14.85268047 67572
COSMOS 1844             
1 17973U 87041A   25354.90647815  .00000245  00000+0  15241-3 0  9992
2 17973  70.8963 200.3459 0029797 144.1680 216.1449 14.14528393992448
SL-14 R/B               
1 18153U 87055B   25355.14139771  .00000370  00000+0  39970-4 0  9997
2 18153  82.4994  63.0706 0019161 273.4840  86.4184 14.85528891 58278
COSMOS 1867             
1 18187U 87060A   25355.19593324 -.00000035  00000+0  24630-4 0  9999
2 18187  65.0086 166.5215 0013682 271.9064  88.0454 14.31487372  8701
SL-14 R/B               
1 18749U 88001B   25355.19892657  .00000424  00000+0  46208-4 0  9996
2 18749  82.5136 269.1914 0019151 134.2887 225.9904 14.85432168 30374
