CCSDS_OMM_VERS = 2.0
CREATION_DATE  = 
ORIGINATOR     = 

OBJECT_NAME    = SL-14 R/B
OBJECT_ID      = 1986-046B
CENTER_NAME    = EARTH
REF_FRAME      = TEME
TIME_SYSTEM    = UTC
MEAN_ELEMENT_THEORY = SGP/SGP4

EPOCH          = 2025-12-21T04:50:40.923456
MEAN_MOTION    = 14.85493273
ECCENTRICITY   = .00243547
INCLINATION    = 82.4816
RA_OF_ASC_NODE = 154.3223
ARG_OF_PERICENTER = 125.4062
MEAN_ANOMALY   = 234.9434

EPHEMERIS_TYPE = 0
CLASSIFICATION_TYPE = U
NORAD_CAT_ID   = 16792
ELEMENT_SET_NO = 999
REV_AT_EPOCH   = 11475
BSTAR          = .494035E-4
MEAN_MOTION_DOT = .453E-5
MEAN_MOTION_DDOT = 0

CCSDS_OMM_VERS = 2.0
CREATION_DATE  = 
ORIGINATOR     = 

OBJECT_NAME    = SL-14 R/B
OBJECT_ID      = 1986-055B
CENTER_NAME    = EARTH
REF_FRAME      = TEME
TIME_SYSTEM    = UTC
MEAN_ELEMENT_THEORY = SGP/SGP4

EPOCH          = 2025-12-20T20:29:04.187616
MEAN_MOTION    = 14.85537764
ECCENTRICITY   = .0017733
INCLINATION    = 82.5197
RA_OF_ASC_NODE = 200.7486
ARG_OF_PERICENTER = 230.3631
MEAN_ANOMALY   = 140.0652

EPHEMERIS_TYPE = 0
CLASSIFICATION_TYPE = U
NORAD_CAT_ID   = 16882
ELEMENT_SET_NO = 999
REV_AT_EPOCH   = 10766
BSTAR          = .36169669E-4
MEAN_MOTION_DOT = .337E-5
MEAN_MOTION_DDOT = 0

CCSDS_OMM_VERS = 2.0
CREATION_DATE  = 
ORIGINATOR     = 

OBJECT_NAME    = AJISAI (EGS)
OBJECT_ID      = 1986-061A
CENTER_NAME    = EARTH
REF_FRAME      = TEME
TIME_SYSTEM    = UTC
MEAN_ELEMENT_THEORY = SGP/SGP4

EPOCH          = 2025-12-21T06:06:12.372768
MEAN_MOTION    = 12.44514359
ECCENTRICITY   = .00113145
INCLINATION    = 50.0113
RA_OF_ASC_NODE = 334.5357
ARG_OF_PERICENTER = 87.2683
MEAN_ANOMALY   = 336.3454

EPHEMERIS_TYPE = 0
CLASSIFICATION_TYPE = U
NORAD_CAT_ID   = 16908
ELEMENT_SET_NO = 999
REV_AT_EPOCH   = 45823
BSTAR          = -.3252418E-5
MEAN_MOTION_DOT = -.98E-6
MEAN_MOTION_DDOT = 0

CCSDS_OMM_VERS = 2.0
CREATION_DATE  = 
ORIGINATOR     = 

OBJECT_NAME    = COSMOS 1812
OBJECT_ID      = 1987-003A
CENTER_NAME    = EARTH
REF_FRAME      = TEME
TIME_SYSTEM    = UTC
MEAN_ELEMENT_THEORY = SGP/SGP4

EPOCH          = 2025-12-21T05:40:57.412704
MEAN_MOTION    = 15.77128069
ECCENTRICITY   = .00066654
INCLINATION    = 82.4877
RA_OF_ASC_NODE = 282.8068
ARG_OF_PERICENTER = 73.3700
MEAN_ANOMALY   = 286.8297

EPHEMERIS_TYPE = 0
CLASSIFICATION_TYPE = U
NORAD_CAT_ID   = 17295
ELEMENT_SET_NO = 999
REV_AT_EPOCH   = 13199
BSTAR          = .56918016E-3
MEAN_MOTION_DOT = .9352E-3
MEAN_MOTION_DDOT = 0

CCSDS_OMM_VERS = 2.0
CREATION_DATE  = 
ORIGINATOR     = 

OBJECT_NAME    = SL-14 R/B
OBJECT_ID      = 1987-024B
CENTER_NAME    = EARTH
REF_FRAME      = TEME
TIME_SYSTEM    = UTC
MEAN_ELEMENT_THEORY = SGP/SGP4

EPOCH          = 2025-12-21T04:42:48.548736
MEAN_MOTION    = 14.86031874
ECCENTRICITY   = .00188263
INCLINATION    = 82.5275
RA_OF_ASC_NODE = 166.5100
ARG_OF_PERICENTER = 156.4601
MEAN_ANOMALY   = 203.7481

EPHEMERIS_TYPE = 0
CLASSIFICATION_TYPE = U
NORAD_CAT_ID   = 17567
ELEMENT_SET_NO = 999
REV_AT_EPOCH   = 7647
BSTAR          = .4502982E-4
MEAN_MOTION_DOT = .419E-5
MEAN_MOTION_DDOT = 0

CCSDS_OMM_VERS = 2.0
CREATION_DATE  = 
ORIGINATOR     = 

OBJECT_NAME    = COSMOS 1833
OBJECT_ID      = 1987-027A
CENTER_NAME    = EARTH
REF_FRAME      = TEME
TIME_SYSTEM    = UTC
MEAN_ELEMENT_THEORY = SGP/SGP4

EPOCH          = 2025-12-20T18:54:39.946176
MEAN_MOTION    = 14.13025386
ECCENTRICITY   = .00228687
INCLINATION    = 70.9151
RA_OF_ASC_NODE = 131.8583
ARG_OF_PERICENTER = 320.4564
MEAN_ANOMALY   = 39.4888

EPHEMERIS_TYPE = 0
CLASSIFICATION_TYPE = U
NORAD_CAT_ID   = 17589
ELEMENT_SET_NO = 999
REV_AT_EPOCH   = 99916
BSTAR          = .13755629E-3
MEAN_MOTION_DOT = .209E-5
MEAN_MOTION_DDOT = 0

CCSDS_OMM_VERS = 2.0
CREATION_DATE  = 
ORIGINATOR     = 

OBJECT_NAME    = SL-16 R/B
OBJECT_ID      = 1987-027B
CENTER_NAME    = EARTH
REF_FRAME      = TEME
TIME_SYSTEM    = UTC
MEAN_ELEMENT_THEORY = SGP/SGP4

EPOCH          = 2025-12-20T15:17:51.729792
MEAN_MOTION    = 14.17155332
ECCENTRICITY   = .000726
INCLINATION    = 71.0038
RA_OF_ASC_NODE = 83.0769
ARG_OF_PERICENTER = 251.2920
MEAN_ANOMALY   = 108.7416

EPHEMERIS_TYPE = 0
CLASSIFICATION_TYPE = U
NORAD_CAT_ID   = 17590
ELEMENT_SET_NO = 999
REV_AT_EPOCH   = 414
BSTAR          = .11716E-3
MEAN_MOTION_DOT = .188E-5
MEAN_MOTION_DDOT = 0

CCSDS_OMM_VERS = 2.0
CREATION_DATE  = 
ORIGINATOR     = 

OBJECT_NAME    = SL-14 R/B
OBJECT_ID      = 1987-038B
CENTER_NAME    = EARTH
REF_FRAME      = TEME
TIME_SYSTEM    = UTC
MEAN_ELEMENT_THEORY = SGP/SGP4

EPOCH          = 2025-12-21T03:37:26.642784
MEAN_MOTION    = 14.85268047
ECCENTRICITY   = .00207726
INCLINATION    = 82.5011
RA_OF_ASC_NODE = 10.7780
ARG_OF_PERICENTER = 66.2837
MEAN_ANOMALY   = 294.0555

EPHEMERIS_TYPE = 0
CLASSIFICATION_TYPE = U
NORAD_CAT_ID   = 17912
ELEMENT_SET_NO = 999
REV_AT_EPOCH   = 6757
BSTAR          = .34565472E-4
MEAN_MOTION_DOT = .322E-5
MEAN_MOTION_DDOT = 0

CCSDS_OMM_VERS = 2.0
CREATION_DATE  = 
ORIGINATOR     = 

OBJECT_NAME    = COSMOS 1844
OBJECT_ID      = 1987-041A
CENTER_NAME    = EARTH
REF_FRAME      = TEME
TIME_SYSTEM    = UTC
MEAN_ELEMENT_THEORY = SGP/SGP4

EPOCH          = 2025-12-20T21:45:19.712160
MEAN_MOTION    = 14.14528393
ECCENTRICITY   = .0029797
INCLINATION    = 70.8963
RA_OF_ASC_NODE = 200.3459
ARG_OF_PERICENTER = 144.1680
MEAN_ANOMALY   = 216.1449

EPHEMERIS_TYPE = 0
CLASSIFICATION_TYPE = U
NORAD_CAT_ID   = 17973
ELEMENT_SET_NO = 999
REV_AT_EPOCH   = 99244
BSTAR          = .15241E-3
MEAN_MOTION_DOT = .245E-5
MEAN_MOTION_DDOT = 0

CCSDS_OMM_VERS = 2.0
CREATION_DATE  = 
ORIGINATOR     = 

OBJECT_NAME    = SL-14 R/B
OBJECT_ID      = 1987-055B
CENTER_NAME    = EARTH
REF_FRAME      = TEME
TIME_SYSTEM    = UTC
MEAN_ELEMENT_THEORY = SGP/SGP4

EPOCH          = 2025-12-21T03:23:36.762144
MEAN_MOTION    = 14.85528891
ECCENTRICITY   = .00191615
INCLINATION    = 82.4994
RA_OF_ASC_NODE = 63.0706
ARG_OF_PERICENTER = 273.4840
MEAN_ANOMALY   = 86.4184

EPHEMERIS_TYPE = 0
CLASSIFICATION_TYPE = U
NORAD_CAT_ID   = 18153
ELEMENT_SET_NO = 999
REV_AT_EPOCH   = 5827
BSTAR          = .39969943E-4
MEAN_MOTION_DOT = .37E-5
MEAN_MOTION_DDOT = 0

CCSDS_OMM_VERS = 2.0
CREATION_DATE  = 
ORIGINATOR     = 

OBJECT_NAME    = COSMOS 1867
OBJECT_ID      = 1987-060A
CENTER_NAME    = EARTH
REF_FRAME      = TEME
TIME_SYSTEM    = UTC
MEAN_ELEMENT_THEORY = SGP/SGP4

EPOCH          = 2025-12-21T04:42:08.631936
MEAN_MOTION    = 14.31487372
ECCENTRICITY   = .00136824
INCLINATION    = 65.0086
RA_OF_ASC_NODE = 166.5215
ARG_OF_PERICENTER = 271.9064
MEAN_ANOMALY   = 88.0454

EPHEMERIS_TYPE = 0
CLASSIFICATION_TYPE = U
NORAD_CAT_ID   = 18187
ELEMENT_SET_NO = 999
REV_AT_EPOCH   = 870
BSTAR          = .24629545E-4
MEAN_MOTION_DOT = -.35E-6
MEAN_MOTION_DDOT = 0

CCSDS_OMM_VERS = 2.0
CREATION_DATE  = 
ORIGINATOR     = 

OBJECT_NAME    = SL-14 R/B
OBJECT_ID      = 1988-001B
CENTER_NAME    = EARTH
REF_FRAME      = TEME
TIME_SYSTEM    = UTC
MEAN_ELEMENT_THEORY = SGP/SGP4

EPOCH          = 2025-12-21T04:46:27.255648
MEAN_MOTION    = 14.85432168
ECCENTRICITY   = .00191515
INCLINATION    = 82.5136
RA_OF_ASC_NODE = 269.1914
ARG_OF_PERICENTER = 134.2887
MEAN_ANOMALY   = 225.9904

EPHEMERIS_TYPE = 0
CLASSIFICATION_TYPE = U
NORAD_CAT_ID   = 18749
ELEMENT_SET_NO = 999
REV_AT_EPOCH   = 3037
BSTAR          = .46208027E-4
MEAN_MOTION_DOT = .424E-5
MEAN_MOTION_DDOT = 0

